INTELSAT 906 (IS-906)   
1 27513U 02041A   26170.83436785  .00000006  00000+0  00000+0 0  9999
2 27513   5.8089  72.8895 0004443   0.6534 199.0349  1.00270622 87057
NIMIQ 2                 
1 27632U 02062A   26170.62007801 -.00000079  00000+0  00000+0 0  9995
2 27632   9.4526  56.8751 0005555  25.4143 299.5883  1.00272278 44202
USA 167                 
1 27691U 03008A   26170.61581270 -.00000007  00000+0  00000+0 0  9998
2 27691  10.9671  43.3894 0003951 314.3562  10.0862  1.00272569  6795
USA 169 (MILSTAR-2 4)   
1 27711U 03012A   26170.47167709 -.00000270  00000+0  00000+0 0  9999
2 27711  12.3534  29.8260 0100734   9.2478 190.5736  1.00272880 32970
ASIASAT 4               
1 27718U 03014A   26170.62336603 -.00000229  00000+0  00000+0 0  9990
2 27718   4.7121  75.7186 0002819  13.7986 190.2737  1.00272292 45328
HELLAS-SAT 2            
1 27811U 03020A   26170.03523775 -.00000093  00000+0  00000+0 0  9993
2 27811   7.3600  67.8634 0002571  26.8600 175.2014  1.00271352 42869
THURAYA-2               
1 27825U 03026A   26170.75906734  .00000115  00000+0  00000+0 0  9997
2 27825   8.8437  31.9649 0003008  12.4339 180.8459  1.00272203 84375
OPTUS C1                
1 27831U 03028B   26170.56734134 -.00000159  00000+0  00000+0 0  9997
2 27831   6.8966  69.3822 0005580  14.9031 183.4988  1.00272247 53086
USA 170                 
1 27875U 03040A   26170.77336437  .00000116  00000+0  00000+0 0  9998
2 27875  10.5065  47.9256 0001834  66.8705  95.8347  1.00269664 33027
GALAXY 13 (HORIZONS-1)  
1 27954U 03044A   26170.72068679  .00000126  00000+0  00000+0 0  9996
2 27954   1.4254  83.8328 0002201 357.1417 296.4018  1.00272160 46593
YAMAL 202               
1 28089U 03053A   26170.58592273 -.00000088  00000+0  00000+0 0  9990
2 28089   6.3487  70.9087 0003193   2.9463 208.4461  1.00271050 82728
UFO 11 (USA 174)        
1 28117U 03057A   26170.71364237 -.00000114  00000+0  00000+0 0  9998
2 28117   8.9410  33.8148 0002417  63.4450 143.2020  1.00271748 82479
USA 176 (DSP 22)        
1 28158U 04004A   26169.96547437 -.00000307  00000+0  00000+0 0  9990
2 28158  12.0649  26.0607 0001409 306.7329 232.6258  1.00275854 32952
ABS-4 (MOBISAT-1)       
1 28184U 04007A   26170.83376118  .00000031  00000+0  00000+0 0  9999
2 28184   6.0479  71.9756 0005078  15.7400 181.4879  1.00274186 52366
INTELSAT 10-02          
1 28358U 04022A   26170.74989359 -.00000017  00000+0  00000+0 0  9991
2 28358   0.0182 302.6837 0000046 156.2032  78.0359  1.00270607 80583
ANIK F2                 
1 28378U 04027A   26170.87094182 -.00000056  00000+0  00000+0 0  9996
2 28378   3.2953  79.4116 0004066   9.4646  21.6183  1.00271481 41296
AMC-15                  
1 28446U 04041A   26170.87206850 -.00000094  00000+0  00000+0 0  9997
2 28446   0.0144 356.8171 0002292  76.7653  43.3946  1.00271443 79338
NSS-10                  
1 28526U 05003A   26170.42921229 -.00000260  00000+0  00000+0 0  9995
2 28526   6.4560  70.4270 0002814  10.5987 303.6835  1.00272167 53171
INMARSAT 4-F1           
1 28628U 05009A   26170.59132155  .00000025  00000+0  00000+0 0  9992
2 28628   5.1720  42.7716 0002617  43.3469 212.6804  1.00271879 77692
DIRECTV 8               
1 28659U 05019A   26170.86929515  .00000000  00000+0  00000+0 0  9994
2 28659   0.0194  18.5279 0003087  76.0345   7.4239  1.00270206 77109
GALAXY 28 (G-28)        
1 28702U 05022A   26170.42610212 -.00000207  00000+0  00000+0 0  9990
2 28702   3.3039  78.9069 0002827   9.3149 305.7445  1.00270893 51995
THAICOM 4               
1 28786U 05028A   26170.84537503 -.00000368  00000+0  00000+0 0  9993
2 28786   0.2533  85.8049 0001725 351.4046 254.6915  1.00270594 52274
ANIK F1R                
1 28868U 05036A   26170.87172183 -.00000082  00000+0  00000+0 0  9998
2 28868   4.3206  76.5485 0004149   4.5306  33.5339  1.00271104 46484
SYRACUSE 3A             
1 28885U 05041B   26170.96159780  .00000122  00000+0  00000+0 0  9995
2 28885   4.6490  75.8044 0002929   5.3723 219.8458  1.00269106 75774
INMARSAT 4-F2           
1 28899U 05044A   26170.61656823 -.00000268  00000+0  00000+0 0  9997
2 28899   5.0990  43.7040 0002945  35.9125 193.6644  1.00270821 75549
METEOSAT-9 (MSG-2)      
1 28912U 05049B   26170.92883707  .00000115  00000+0  00000+0 0  9995
2 28912   9.3683  54.1432 0001774 346.4633 247.5699  1.00273646  7020
EUTELSAT 174A           
1 28924U 05052A   26170.85612175  .00000002  00000+0  00000+0 0  9998
2 28924   4.2274  76.4962 0006281  10.7335 303.0025  1.00272104 52351
ECHOSTAR 10             
1 28935U 06003A   26170.87102848 -.00000061  00000+0  00000+0 0  9996
2 28935   0.0163 358.3849 0001413  78.5214  34.5410  1.00270823 74499
SPAINSAT                
1 28945U 06007A   26170.34069209 -.00000223  00000+0  00000+0 0  9996
2 28945   0.5699  86.4854 0004801 358.6696 274.8867  1.00272582 74246
JCSAT-5A                
1 29045U 06010A   26170.84780171 -.00000333  00000+0  00000+0 0  9997
2 29045   1.1175  84.1928 0001991 349.0347 272.0974  1.00271691 73793
ASTRA 1KR               
1 29055U 06012A   26170.84211356  .00000113  00000+0  00000+0 0  9999
2 29055   0.4818  83.2095 0003391   1.3742 145.6138  1.00272891 45720
GALAXY 16 (G-16)        
1 29236U 06023A   26170.65951870 -.00000133  00000+0  00000+0 0  9996
2 29236   0.0205 113.6190 0002555 332.5127 320.1721  1.00271531 72995
