OBJECT_NAME,OBJECT_ID,EPOCH,MEAN_MOTION,ECCENTRICITY,INCLINATION,RA_OF_ASC_NODE,ARG_OF_PERICENTER,MEAN_ANOMALY,EPHEMERIS_TYPE,CLASSIFICATION_TYPE,NORAD_CAT_ID,ELEMENT_SET_NO,REV_AT_EPOCH,BSTAR,MEAN_MOTION_DOT,MEAN_MOTION_DDOT
INTELSAT 906 (IS-906),2002-041A,2026-06-19T20:01:29.382240,1.00270622,.00044432,5.8089,72.8895,0.6534,199.0349,0,U,27513,999,8705,0,.6E-7,0
NIMIQ 2,2002-062A,2026-06-19T14:52:54.740064,1.00272278,.00055558,9.4526,56.8751,25.4143,299.5883,0,U,27632,999,4420,0,-.79E-6,0
USA 167,2003-008A,2026-06-19T14:46:46.217280,1.00272569,.00039516,10.9671,43.3894,314.3562,10.0862,0,U,27691,999,679,0,-.7E-7,0
USA 169 (MILSTAR-2 4),2003-012A,2026-06-19T11:19:12.900576,1.00272880,.01007349,12.3534,29.8260,9.2478,190.5736,0,U,27711,999,3297,0,-.27E-5,0
ASIASAT 4,2003-014A,2026-06-19T14:57:38.824992,1.00272292,.00028194,4.7121,75.7186,13.7986,190.2737,0,U,27718,999,4532,0,-.229E-5,0
HELLAS-SAT 2,2003-020A,2026-06-19T00:50:44.541600,1.00271352,.00025715,7.3600,67.8634,26.8600,175.2014,0,U,27811,999,4286,0,-.93E-6,0
THURAYA-2,2003-026A,2026-06-19T18:13:03.418176,1.00272203,.00030087,8.8437,31.9649,12.4339,180.8459,0,U,27825,999,8437,0,.115E-5,0
OPTUS C1,2003-028B,2026-06-19T13:36:58.291776,1.00272247,.00055809,6.8966,69.3822,14.9031,183.4988,0,U,27831,999,5308,0,-.159E-5,0
USA 170,2003-040A,2026-06-19T18:33:38.681568,1.00269664,.00018341,10.5065,47.9256,66.8705,95.8347,0,U,27875,999,3302,0,.116E-5,0
GALAXY 13 (HORIZONS-1),2003-044A,2026-06-19T17:17:47.338656,1.00272160,.00022017,1.4254,83.8328,357.1417,296.4018,0,U,27954,999,4659,0,.126E-5,0
YAMAL 202,2003-053A,2026-06-19T14:03:43.723872,1.00271050,.00031932,6.3487,70.9087,2.9463,208.4461,0,U,28089,999,8272,0,-.88E-6,0
UFO 11 (USA 174),2003-057A,2026-06-19T17:07:38.700768,1.00271748,.00024177,8.9410,33.8148,63.4450,143.2020,0,U,28117,999,8247,0,-.114E-5,0
USA 176 (DSP 22),2004-004A,2026-06-18T23:10:16.985568,1.00275854,.00014095,12.0649,26.0607,306.7329,232.6258,0,U,28158,999,3295,0,-.307E-5,0
ABS-4 (MOBISAT-1),2004-007A,2026-06-19T20:00:36.965952,1.00274186,.00050788,6.0479,71.9756,15.7400,181.4879,0,U,28184,999,5236,0,.31E-6,0
INTELSAT 10-02,2004-022A,2026-06-19T17:59:50.806176,1.00270607,.00000461,0.0182,302.6837,156.2032,78.0359,0,U,28358,999,8058,0,-.17E-6,0
ANIK F2,2004-027A,2026-06-19T20:54:09.373248,1.00271481,.00040669,3.2953,79.4116,9.4646,21.6183,0,U,28378,999,4129,0,-.56E-6,0
AMC-15,2004-041A,2026-06-19T20:55:46.718400,1.00271443,.00022922,0.0144,356.8171,76.7653,43.3946,0,U,28446,999,7933,0,-.94E-6,0
NSS-10,2005-003A,2026-06-19T10:18:03.941856,1.00272167,.00028144,6.4560,70.4270,10.5987,303.6835,0,U,28526,999,5317,0,-.26E-5,0
INMARSAT 4-F1,2005-009A,2026-06-19T14:11:30.181920,1.00271879,.00026179,5.1720,42.7716,43.3469,212.6804,0,U,28628,999,7769,0,.25E-6,0
DIRECTV 8,2005-019A,2026-06-19T20:51:47.100960,1.00270206,.00030872,0.0194,18.5279,76.0345,7.4239,0,U,28659,999,7710,0,0,0
GALAXY 28 (G-28),2005-022A,2026-06-19T10:13:35.223168,1.00270893,.00028278,3.3039,78.9069,9.3149,305.7445,0,U,28702,999,5199,0,-.207E-5,0
THAICOM 4,2005-028A,2026-06-19T20:17:20.402592,1.00270594,.00017255,0.2533,85.8049,351.4046,254.6915,0,U,28786,999,5227,0,-.368E-5,0
ANIK F1R,2005-036A,2026-06-19T20:55:16.766112,1.00271104,.00041491,4.3206,76.5485,4.5306,33.5339,0,U,28868,999,4648,0,-.82E-6,0
SYRACUSE 3A,2005-041B,2026-06-19T23:04:42.049920,1.00269106,.00029295,4.6490,75.8044,5.3723,219.8458,0,U,28885,999,7577,0,.122E-5,0
INMARSAT 4-F2,2005-044A,2026-06-19T14:47:51.495072,1.00270821,.00029453,5.0990,43.7040,35.9125,193.6644,0,U,28899,999,7554,0,-.268E-5,0
METEOSAT-9 (MSG-2),2005-049B,2026-06-19T22:17:31.522848,1.00273646,.00017746,9.3683,54.1432,346.4633,247.5699,0,U,28912,999,702,0,.115E-5,0
EUTELSAT 174A,2005-052A,2026-06-19T20:32:48.919200,1.00272104,.0006281,4.2274,76.4962,10.7335,303.0025,0,U,28924,999,5235,0,.2E-7,0
ECHOSTAR 10,2006-003A,2026-06-19T20:54:16.860672,1.00270823,.00014131,0.0163,358.3849,78.5214,34.5410,0,U,28935,999,7449,0,-.61E-6,0
SPAINSAT,2006-007A,2026-06-19T08:10:35.796576,1.00272582,.00048017,0.5699,86.4854,358.6696,274.8867,0,U,28945,999,7424,0,-.223E-5,0
JCSAT-5A,2006-010A,2026-06-19T20:20:50.067744,1.00271691,.00019915,1.1175,84.1928,349.0347,272.0974,0,U,29045,999,7379,0,-.333E-5,0
ASTRA 1KR,2006-012A,2026-06-19T20:12:38.611584,1.00272891,.00033916,0.4818,83.2095,1.3742,145.6138,0,U,29055,999,4572,0,.113E-5,0
GALAXY 16 (G-16),2006-023A,2026-06-19T15:49:42.415680,1.00271531,.00025555,0.0205,113.6190,332.5127,320.1721,0,U,29236,999,7299,0,-.133E-5,0
